id,spkid,full_name,pdes,name,prefix,neo,pha,H,G,M1,M2,K1,K2,PC,diameter,extent,albedo,rot_per,GM,BV,UB,IR,spec_B,spec_T,H_sigma,diameter_sigma,orbit_id,epoch,epoch_mjd,epoch_cal,equinox,e,a,q,i,om,w,ma,ad,n,tp,tp_cal,per,per_y,moid,moid_ld,t_jup,sigma_e,sigma_a,sigma_q,sigma_i,sigma_om,sigma_w,sigma_ma,sigma_ad,sigma_n,sigma_tp,sigma_per,class,producer,data_arc,first_obs,last_obs,n_obs_used,n_del_obs_used,n_dop_obs_used,condition_code,rms,two_body,A1,A2,A3,DT
a0016974,2016974, 16974 (1998 WR21),16974,0,0,N,N,9.8,0,54730.00,900.00,0,0,0,64383.68,0,0.0691,78.9,0,0,0,0,0,0,0,7982.08,JPL 11,2457200.5,57200,20150627,J2000,0.068491624,5.197538871,4.841550994,15.02174858,241.5747185,134.8771713,178.1176292,5.553526749,0.083177805,2455059.092,20090815.59,4328.07767,11.84963086,3.86408,1503.784014,2.927,9.81E-08,0.000000163,0.000000499,0.0000098,0.000033397,0.000074572,0.000068728,0.000000174,3.91E-09,0.00081483,0.00020358,TJN,Otto Matic,14782,27351,42133,754,0,0,0,0.57,0,0,0,0,0
a0017060,2017060, 17060 Mikecombi (1999 GX7),17060,Mikecombi,0,N,N,13.5,0,5164.00,382.00,0,0,0,6694.77,0,0,11.4,0,0,0,0,0,0,0,557.06,JPL 19,2457200.5,57200,20150627,J2000,0.14965505,2.547954262,2.16664004,12.23209943,340.8386472,280.3935745,294.77057,2.929268485,0.242335273,2457469.67,20160322.17,1485.545194,4.067201078,1.19133,463.6298961,3.395,4.86E-08,1.91E-08,0.000000124,0.00000957,0.000021217,0.000043386,0.000040753,2.19E-08,2.72E-09,0.00016965,0.000016676,MBA,Otto Matic,23825,18343,42168,1235,0,0,0,0.49,0,0,0,0,0
a0017266,2017266, 17266 (2000 KT6),17266,0,0,N,N,13.3,0,12002.00,162.00,0,0,0,11322.03,0,0.0289,6.6267,0,0,0,0,0,0,0,1496.68,JPL 15,2457200.5,57200,20150627,J2000,0.225862244,2.794732454,2.16350791,8.499938747,128.2448384,282.8521117,283.6255233,3.425956999,0.210956891,2457562.538,20160623.04,1706.509791,4.672169173,1.19373,464.5639041,3.274,5.63E-08,2.34E-08,0.000000161,0.00000574,0.000043202,0.000045205,0.000015586,2.86E-08,2.65E-09,0.000076517,0.000021405,MBA,Otto Matic,18602,23660,42262,982,0,0,0,0.53,0,0,0,0,0
a0017389,2017389, 17389 (1981 EN30),17389,0,0,N,N,13.3,0,10973.00,106.00,0,0,0,11426.00,0,0.0357,0,0,0,0,0,0,0,0,1086.34,JPL 14,2457200.5,57200,20150627,J2000,0.181997492,3.100495499,2.536213093,1.936031229,58.84330047,278.9014533,297.4806242,3.664777905,0.18053334,2457546.804,20160607.3,1994.091511,5.459525014,1.52793,594.6245181,3.195,4.83E-08,0.00000003,0.000000157,0.00000579,0.00015577,0.00015666,0.000018938,3.55E-08,2.62E-09,0.00010799,0.000028973,MBA,Otto Matic,12609,29626,42235,1121,0,0,0,0.53,0,0,0,0,0
a0017421,2017421, 17421 (1988 SW1),17421,0,0,N,N,11.8,0,23780.00,680.00,0,0,0,29498.68,0,0,0,0,0,0,0,0,0,0,4573.65,JPL 8,2457200.5,57200,20150627,J2000,0.098024137,5.145251061,4.640892267,16.92592263,32.15069442,216.9523622,188.8559525,5.649609854,0.084448943,2459227.098,20210112.6,4262.930803,11.67126846,3.64509,1418.559675,2.905,9.45E-08,0.000000202,0.000000451,0.000012544,0.000029545,0.000067463,0.000060335,0.000000221,4.96E-09,0.00072542,0.00025043,TJN,Otto Matic,9581,32401,41982,465,0,0,0,0.58,0,0,0,0,0
a0017442,2017442, 17442 (1989 UO5),17442,0,0,N,N,11.7,0,23910.00,1950.00,0,0,0,34118.59,0,0,0,0,0,0,0,0,0,0,7850.17,JPL 12,2457200.5,57200,20150627,J2000,0.04559005,5.254807463,5.015240528,15.75609665,31.35600059,325.3276224,71.15318783,5.494374399,0.081821768,2456330.888,20130207.39,4399.807128,12.04601541,4.02527,1566.514326,2.923,0.000000145,0.00000015,0.000000791,0.000015837,0.000029822,0.00011542,0.00010737,0.000000157,3.51E-09,0.0013214,0.000189,TJN,Otto Matic,14820,27234,42054,552,0,0,0,0.59,0,0,0,0,0
a0017445,2017445, 17445 Avatcha (1989 YC5),17445,Avatcha,0,N,N,12.5,0,20495.00,319.00,0,0,0,22695.95,0,0.0389,0,0,0,0,0,0,0,0,4642.62,JPL 13,2457200.5,57200,20150627,J2000,0.26385906,3.161190731,2.327081917,15.17961368,311.7739234,47.21362921,253.0548188,3.995299545,0.175358985,2457810.364,20170225.86,2052.931586,5.620620357,1.35025,525.4767925,3.097,8.13E-08,3.92E-08,0.000000253,0.00000826,0.000025111,0.000028475,0.000015632,4.95E-08,3.26E-09,0.000097414,0.000038154,MBA,Otto Matic,13749,28416,42165,790,0,0,0,0.49,0,0,0,0,0
a0017463,2017463, 17463 (1990 UO5),17463,0,0,N,N,13.4,0,10468.00,218.00,0,0,0,10633.26,0,0.0419,0,0,0,0,0,0,0,0,748.82,JPL 10,2457200.5,57200,20150627,J2000,0.147512,2.57456439,2.194785249,12.46260733,66.91686586,29.21643044,306.6449641,2.954343531,0.238587912,2457424.128,20160205.63,1508.877783,4.131082225,1.21986,474.7329162,3.38,7.83E-08,0.000000024,0.000000204,0.00000745,0.000035721,0.000043104,0.000027516,2.75E-08,3.34E-09,0.00011693,0.000021104,MBA,Otto Matic,11938,30330,42268,712,0,0,0,0.47,0,0,0,0,0
a0017470,2017470, 17470 Mitsuhashi (1991 BX),17470,Mitsuhashi,0,N,N,13.2,0,11699.00,373.00,0,0,0,14730.59,0,0,12.6,0,0,0,0,0,0,0,1372.61,JPL 12,2457200.5,57200,20150627,J2000,0.143170308,3.156262294,2.704379248,4.121924095,246.1114856,216.4545975,148.8993617,3.608145339,0.175769875,2456353.373,20130301.87,2048.132539,5.607481285,1.72325,670.6372025,3.186,5.39E-08,3.56E-08,0.000000162,0.00000617,0.000089128,0.00009259,0.000026619,4.07E-08,2.97E-09,0.00014574,0.000034662,MBA,Otto Matic,9394,32803,42197,933,0,0,0,0.54,0,0,0,0,0
a0017479,2017479, 17479 (1991 PV9),17479,0,0,N,N,13.3,0,6352.00,429.00,0,0,0,6656.51,0,0,2.9528,0,0,0,0,0,0,0,470.07,JPL 14,2457200.5,57200,20150627,J2000,0.176177147,2.596279432,2.138874327,14.14860547,169.3027172,108.8254822,275.0302024,3.053684536,0.235600889,2457561.151,20160621.65,1528.007817,4.183457405,1.17108,455.7492036,3.353,4.79E-08,1.86E-08,0.000000124,0.00000712,0.000019919,0.00002912,0.000022236,2.19E-08,2.54E-09,0.000095813,0.000016446,MBA,Otto Matic,8708,33463,42171,1115,0,0,0,0.46,0,0,0,0,0
a0017711,2017711, 17711 (1997 WA7),17711,0,0,N,N,12.3,0,9118.00,266.00,0,0,0,9910.55,0,0.1515,0,0,0,0,0,0,0,0,671.66,JPL 13,2457200.5,57200,20150627,J2000,0.194394943,2.591307905,2.087570753,15.19234946,96.00954738,192.0205284,259.7731221,3.095045057,0.236279228,2457624.688,20160824.19,1523.621024,4.171447019,1.07308,417.6105436,3.344,0.000000068,2.01E-08,0.000000174,0.00000718,0.000023153,0.000028325,0.000020333,0.000000024,2.75E-09,0.000088094,0.000017737,MBA,Otto Matic,8675,33404,42079,1151,0,0,0,0.52,0,0,0,0,0
a0017839,2017839, 17839 (1998 HN95),17839,0,0,N,N,12.5,0,20580.00,80.00,0,0,0,20474.97,0,0.0711,7.1406,0,0,0,0,0,0,0,1023.59,JPL 13,2457200.5,57200,20150627,J2000,0.155451694,3.05655165,2.581405518,15.17375489,224.619969,146.9559793,292.7849034,3.531697782,0.184440574,2457564.927,20160625.43,1951.848186,5.343869092,1.59736,621.6445912,3.164,8.61E-08,3.99E-08,0.000000266,0.00000994,0.000023052,0.000033559,0.000030479,4.61E-08,3.61E-09,0.0001706,0.000038217,MBA,Otto Matic,23380,18850,42230,778,0,0,0,0.53,0,0,0,0,0
a0017938,2017938, 17938 Tamsendrew (1999 HW6),17938,Tamsendrew,0,N,N,14.5,0,3224.00,119.00,0,0,0,4018.00,0,0,2.53,0,0,0,0,0,0,0,321.96,JPL 12,2457200.5,57200,20150627,J2000,0.188091733,2.357065903,1.913721294,3.787345539,209.390322,339.2430334,186.3323378,2.800410513,0.272361982,2457838.135,20170325.64,1321.770379,3.618810073,0.915204,356.1699407,3.527,4.62E-08,0.000000015,0.000000108,0.00000498,0.000090147,0.000092004,0.000020607,1.78E-08,2.60E-09,0.000079449,0.000012616,MBA,Otto Matic,14096,28167,42263,928,0,0,0,0.55,0,0,0,0,0
a0018039,2018039, 18039 (1999 ND49),18039,0,0,N,N,13.3,0,8059.00,131.00,0,0,0,9516.64,0,0.0205,0,0,0,0,0,0,0,0,651.43,JPL 9,2457200.5,57200,20150627,J2000,0.071961547,3.075113539,2.853823612,8.092822995,277.1370548,138.3971445,242.9906462,3.296403467,0.182773126,2457840.689,20170328.19,1969.654987,5.392621457,1.8728,728.837576,3.21,4.91E-08,0.000000034,0.000000156,0.00000631,0.000043126,0.000067542,0.000053894,3.64E-08,3.03E-09,0.00029979,0.000032624,MBA,Otto Matic,11227,31006,42233,905,0,0,0,0.5,0,0,0,0,0
a0018096,2018096, 18096 (2000 LM16),18096,0,0,N,N,13.8,0,7356.00,109.00,0,0,0,7995.34,0,0,86,0,0,0,0,0,0,0,321.21,JPL 19,2457200.5,57200,20150627,J2000,0.246955051,2.403046739,1.809602208,13.49999827,162.3407214,146.9854875,3.092890679,2.99649127,0.264582275,2457188.81,20150615.31,1360.635361,3.725216595,0.810813,315.5440952,3.446,5.32E-08,1.15E-08,0.000000126,0.000006559,0.000019486,0.000022191,0.0000097,1.44E-08,1.90E-09,0.000036634,0.00000978,MBA,Otto Matic,15001,27265,42266,957,0,0,0,0.47,0,0,0,0,0
a0018153,2018153, 18153 (2000 OC61),18153,0,0,N,N,12.4,0,17427.00,180.00,0,0,0,19517.94,0,0.0743,0,0,0,0,0,0,0,0,2802.41,JPL 16,2457200.5,57200,20150627,J2000,0.205999779,3.120019041,2.477295808,15.05856751,329.6204855,352.6823427,268.9907854,3.762742274,0.17884146,2457709.382,20161116.88,2012.956054,5.511173316,1.46582,570.4531694,3.131,7.69E-08,3.26E-08,0.000000243,0.00000854,0.000023042,0.000027155,0.000017368,3.93E-08,2.80E-09,0.00010075,0.000031543,MBA,Otto Matic,15567,26552,42119,949,0,0,0,0.49,0,0,0,0,0
a0018219,2018219, 18219 (6260 P-L),18219,0,0,N,N,12,0,22669.00,149.00,0,0,0,22779.68,0,0.0892,4.71,0,0,0,0,0,0,0,1240.28,JPL 16,2457200.5,57200,20150627,J2000,0.047932852,3.182320092,3.029782414,16.219226,353.4882785,172.2283732,76.84514433,3.334857769,0.173615415,2456757.883,20140410.38,2073.548596,5.677066655,2.03697,792.7276149,3.135,9.41E-08,0.000000037,0.000000294,0.00000993,0.000023087,0.000078483,0.000072208,3.88E-08,3.03E-09,0.00041734,0.000036157,MBA,Otto Matic,19998,22183,42181,908,0,0,0,0.5,0,0,0,0,0
a0018300,2018300, 18300 (1979 PA),18300,0,0,N,N,14.3,0,9729.00,508.00,0,0,0,8716.62,0,0.0278,0,0,0,0,0,0,0,0,649.89,JPL 10,2457200.5,57200,20150627,J2000,0.264957835,2.557652377,1.87998234,12.04792664,227.3452006,67.5123787,291.692697,3.235322414,0.240958249,2457483.982,20160405.48,1494.034762,4.090444249,0.902343,351.1648253,3.357,5.71E-08,1.91E-08,0.000000142,0.000011301,0.000035892,0.000047193,0.000033986,2.42E-08,2.70E-09,0.0001424,0.000016766,MBA,Otto Matic,13075,29081,42156,726,0,0,0,0.5,0,0,0,0,0
